GLOBALSTAR M075         
1 37192U 10054E   24157.98457351 -.00000067  00000+0  20569-3 0  9991
2 37192  51.9942 246.9907 0000612 140.8830  30.3795 12.62275212628490
GLOBALSTAR M073         
1 37193U 10054F   24158.20243547 -.00000095  00000+0  49551-4 0  9992
2 37193  52.0033 159.8603 0000090 292.9275 147.2480 12.62266151630406
GLOBALSTAR M083         
1 37739U 11033A   24157.88859431 -.00000116  00000+0 -67055-4 0  9998
2 37739  51.9856 110.0581 0000521  66.1863 328.7997 12.62270060599339
GLOBALSTAR M088         
1 37740U 11033B   24157.85727147 -.00000078  00000+0  14201-3 0  9995
2 37740  51.9755  15.9626 0000939  92.2927 280.4951 12.62263891594878
GLOBALSTAR M091         
1 37741U 11033C   24157.79173626 -.00000084  00000+0  11010-3 0  9998
2 37741  52.0013 339.0463 0001165 106.6236 266.9890 12.62263380595653
GLOBALSTAR M085         
1 37742U 11033D   24158.12968459 -.00000092  00000+0  66191-4 0  9993
2 37742  51.9875 289.3870 0000995 124.3713  47.0025 12.62271656596692
GLOBALSTAR M081         
1 37743U 11033E   24158.15630392 -.00000097  00000+0  37033-4 0  9997
2 37743  51.9968 291.8622 0000943 136.3898  35.0543 12.62265600596738
GLOBALSTAR M089         
1 37744U 11033F   24157.95850588 -.00000069  00000+0  19509-3 0  9992
2 37744  51.9927 246.7655 0000334 179.3706 351.4698 12.62264564597429
